NORAD_CAT_ID,OBJECT_NAME,OBJECT_TYPE,EPOCH,MEAN_MOTION,ECCENTRICITY,INCLINATION,RA_OF_ASC_NODE,ARG_OF_PERICENTER,MEAN_ANOMALY,BSTAR,MEAN_MOTION_DOT,MEAN_MOTION_DDOT,TLE_LINE0,TLE_LINE1,TLE_LINE2,SEMIMAJOR_AXIS,PERIOD,APOGEE,PERIGEE,DECAYED
50836.0,STARLINK-3330,PAYLOAD,2024-07-19 16:03:19,15.08839578,0.000114,53.2177,343.5184,96.5338,263.5784,0.00036672,5.553e-05,0.0,0 STARLINK-3330,1 50836U 22001AK  24201.66897799  .00005553  00000-0  36672-3 0  9992,2 50836  53.2177 343.5184 0001140  96.5338 263.5784 15.08839578139885,6917.882,95.438,540.535,538.958,0.0
50836.0,STARLINK-3330,PAYLOAD,2024-07-20 12:43:20,15.08840734,0.0001318,53.2174,339.6517,100.2211,259.893,0.00011045,1.47e-05,0.0,0 STARLINK-3330,1 50836U 22001AK  24202.53009702  .00001470  00000-0  11045-3 0  9999,2 50836  53.2174 339.6517 0001318 100.2211 259.8930 15.08840734141372,6917.878,95.438,540.655,538.831,0.0
50836.0,STARLINK-3330,PAYLOAD,2024-07-20 14:18:43,15.08840631,0.0001308,53.2178,339.3545,101.0499,259.0641,8.2725e-05,1.029e-05,0.0,0 STARLINK-3330,1 50836U 22001AK  24202.59633721  .00001029  00000-0  82725-4 0  9993,2 50836  53.2178 339.3545 0001308 101.0499 259.0641 15.08840631140028,6917.878,95.438,540.648,538.839,0.0
50836.0,STARLINK-3330,PAYLOAD,2024-07-20 15:54:06,15.08840527,0.0001333,53.2174,339.0611,70.9852,289.1285,0.00013594,1.876e-05,0.0,0 STARLINK-3330,1 50836U 22001AK  24202.66257949  .00001876  00000-0  13594-3 0  9992,2 50836  53.2174 339.0611 0001333  70.9852 289.1285 15.08840527140033,6917.879,95.438,540.666,538.822,0.0
50836.0,STARLINK-3330,PAYLOAD,2024-07-21 14:09:30,15.08838789,0.0001171,53.2177,334.8947,85.5266,274.586,8.0101e-05,9.87e-06,0.0,0 STARLINK-3330,1 50836U 22001AK  24203.58994010  .00000987  00000-0  80101-4 0  9992,2 50836  53.2177 334.8947 0001171  85.5266 274.5860 15.08838789140171,6917.884,95.438,540.559,538.939,0.0
50836.0,STARLINK-3330,PAYLOAD,2024-07-21 15:44:53,15.08839841,0.0001185,53.2176,334.5967,79.4384,280.6742,0.00010896,1.447e-05,0.0,0 STARLINK-3330,1 50836U 22001AK  24203.65617959  .00001447  00000-0  10896-3 0  9999,2 50836  53.2176 334.5967 0001185  79.4384 280.6742 15.08839841141546,6917.881,95.438,540.566,538.926,0.0
50836.0,STARLINK-3330,PAYLOAD,2024-07-22 09:14:08,15.0883929,0.0001237,53.2176,331.3236,71.9471,288.1655,0.00010073,1.316e-05,0.0,0 STARLINK-3330,1 50836U 22001AK  24204.38482046  .00001316  00000-0  10073-3 0  9999,2 50836  53.2176 331.3236 0001237  71.9471 288.1655 15.08839290140297,6917.883,95.438,540.603,538.892,0.0
50836.0,STARLINK-3330,PAYLOAD,2024-07-22 23:32:36,15.08847599,0.0001316,53.2183,328.6519,74.9796,285.1342,0.00017834,2.552e-05,0.0,0 STARLINK-3330,1 50836U 22001AK  24204.98097591  .00002552  00000-0  17834-3 0  9997,2 50836  53.2183 328.6519 0001316  74.9796 285.1342 15.08847599141741,6917.857,95.437,540.633,538.812,0.0
50836.0,STARLINK-3330,PAYLOAD,2024-07-23 09:04:55,15.08831971,0.0001354,53.2178,326.8667,91.1202,268.9945,-5.0343e-05,-1.089e-05,0.0,0 STARLINK-3330,1 50836U 22001AK  24205.37842364 -.00001089  00000-0 -50343-4 0  9996,2 50836  53.2178 326.8667 0001354  91.1202 268.9945 15.08831971141806,6917.905,95.438,540.707,538.833,0.0
50836.0,STARLINK-3330,PAYLOAD,2024-07-23 20:12:37,15.08843219,0.0001258,53.2185,324.7846,77.164,282.9493,0.00014039,1.947e-05,0.0,0 STARLINK-3330,1 50836U 22001AK  24205.84210056  .00001947  00000-0  14039-3 0  9997,2 50836  53.2185 324.7846 0001258  77.1640 282.9493 15.08843219141872,6917.871,95.437,540.606,538.865,0.0
50836.0,STARLINK-3330,PAYLOAD,2024-07-24 08:55:42,15.08836841,0.0001593,53.2173,322.4071,68.9077,291.2086,2.7601e-05,1.51e-06,0.0,0 STARLINK-3330,1 50836U 22001AK  24206.37202537  .00000151  00000-0  27601-4 0  9997,2 50836  53.2173 322.4071 0001593  68.9077 291.2086 15.08836841141951,6917.89,95.438,540.857,538.653,0.0
50836.0,STARLINK-3330,PAYLOAD,2024-07-24 16:52:38,15.08847448,0.0001253,53.2175,320.9192,85.483,274.6305,0.00014882,2.082e-05,0.0,0 STARLINK-3330,1 50836U 22001AK  24206.70321868  .00002082  00000-0  14882-3 0  9994,2 50836  53.2175 320.9192 0001253  85.4830 274.6305 15.08847448142005,6917.858,95.437,540.589,538.856,0.0
50836.0,STARLINK-3330,PAYLOAD,2024-07-24 21:38:47,15.08853027,0.0001291,53.2178,320.0276,78.1263,281.9873,0.00042241,6.443e-05,0.0,0 STARLINK-3330,1 50836U 22001AK  24206.90193500  .00006443  00000-0  42241-3 0  9991,2 50836  53.2178 320.0276 0001291  78.1263 281.9873 15.08853027140675,6917.841,95.437,540.599,538.812,0.0
50836.0,STARLINK-3330,PAYLOAD,2024-07-25 07:11:07,15.08830625,0.0001099,53.2192,318.2451,80.3368,279.7748,7.064e-05,8.36e-06,0.0,0 STARLINK-3330,1 50836U 22001AK  24207.29938752  .00000836  00000-0  70640-4 0  9995,2 50836  53.2192 318.2451 0001099  80.3368 279.7748 15.08830625142095,6917.909,95.438,540.534,539.014,0.0
50836.0,STARLINK-3330,PAYLOAD,2024-07-26 00:40:21,15.08843226,0.0001341,53.216,314.9757,77.6831,282.4311,2.3758e-05,9e-07,0.0,0 STARLINK-3330,1 50836U 22001AK  24208.02802153  .00000090  00000-0  23758-4 0  9992,2 50836  53.2160 314.9757 0001341  77.6831 282.4311 15.08843226142207,6917.871,95.437,540.663,538.808,0.0
50836.0,STARLINK-3330,PAYLOAD,2024-07-26 11:48:03,15.08844418,0.0001477,53.2179,312.8916,87.3938,272.7223,6.0913e-05,6.82e-06,0.0,0 STARLINK-3330,1 50836U 22001AK  24208.49170199  .00000682  00000-0  60913-4 0  9992,2 50836  53.2179 312.8916 0001477  87.3938 272.7223 15.08844418140911,6917.867,95.437,540.754,538.71,0.0
50836.0,STARLINK-3330,PAYLOAD,2024-07-26 13:23:25,15.08848619,0.0001365,53.2176,312.5927,101.8652,258.2493,0.00011753,1.583e-05,0.0,0 STARLINK-3330,1 50836U 22001AK  24208.55793879  .00001583  00000-0  11753-3 0  9993,2 50836  53.2176 312.5927 0001365 101.8652 258.2493 15.08848619140924,6917.854,95.437,540.663,538.775,0.0
50836.0,STARLINK-3330,PAYLOAD,2024-07-27 05:17:17,15.08845712,0.0001361,53.2173,309.6199,99.4809,260.6337,2.9427e-05,1.81e-06,0.0,0 STARLINK-3330,1 50836U 22001AK  24209.22033888  .00000181  00000-0  29427-4 0  9996,2 50836  53.2173 309.6199 0001361  99.4809 260.6337 15.08845712141028,6917.863,95.437,540.669,538.786,0.0
50836.0,STARLINK-3330,PAYLOAD,2024-07-27 10:03:27,15.08821958,0.0001573,53.2177,308.73,88.8692,271.248,-0.00017721,-3.106e-05,0.0,0 STARLINK-3330,1 50836U 22001AK  24209.41907237 -.00003106  00000-0 -17721-3 0  9990,2 50836  53.2177 308.7300 0001573  88.8692 271.2480 15.08821958142410,6917.936,95.439,540.889,538.712,0.0
50836.0,STARLINK-3330,PAYLOAD,2024-07-27 16:25:00,15.08825668,0.0001883,53.2147,307.5369,105.3066,254.8134,-0.00010324,-1.93e-05,0.0,0 STARLINK-3330,1 50836U 22001AK  24209.68403184 -.00001930  00000-0 -10324-3 0  9996,2 50836  53.2147 307.5369 0001883 105.3066 254.8134 15.08825668141091,6917.924,95.438,541.092,538.487,0.0
50836.0,STARLINK-3330,PAYLOAD,2024-07-28 13:05:00,15.08846787,0.0001281,53.217,303.6733,92.5855,267.5284,7.8882e-05,9.68e-06,0.0,0 STARLINK-3330,1 50836U 22001AK  24210.54514307  .00000968  00000-0  78882-4 0  9995,2 50836  53.2170 303.6733 0001281  92.5855 267.5284 15.08846787142581,6917.86,95.437,540.611,538.838,0.0
50836.0,STARLINK-3330,PAYLOAD,2024-07-28 17:51:10,15.0883169,0.0001421,53.218,302.781,90.7199,269.3956,0.0004695,7.19e-05,0.0,0 STARLINK-3330,1 50836U 22001AK  24210.74386772  .00007190  00000-0  46950-3 0  9994,2 50836  53.2180 302.7810 0001421  90.7199 269.3956 15.08831690142612,6917.906,95.438,540.754,538.788,0.0
50836.0,STARLINK-3330,PAYLOAD,2024-07-29 12:55:47,15.08841659,0.0001389,53.2188,299.2121,89.1576,270.9576,0.00018012,2.58e-05,0.0,0 STARLINK-3330,1 50836U 22001AK  24211.53874437  .00002580  00000-0  18012-3 0  9998,2 50836  53.2188 299.2121 0001389  89.1576 270.9576 15.08841659141373,6917.875,95.437,540.701,538.779,0.0
50836.0,STARLINK-3330,PAYLOAD,2024-07-29 22:28:05,15.08851598,0.0001543,53.2182,297.4293,97.6012,262.5156,0.00022205,3.249e-05,0.0,0 STARLINK-3330,1 50836U 22001AK  24211.93617658  .00003249  00000-0  22205-3 0  9994,2 50836  53.2182 297.4293 0001543  97.6012 262.5156 15.08851598141439,6917.845,95.437,540.777,538.643,0.0
50836.0,STARLINK-3330,PAYLOAD,2024-07-30 09:35:49,15.0883565,0.0001468,53.2187,295.3463,85.5526,274.5634,-4.4188e-05,-9.91e-06,0.0,0 STARLINK-3330,1 50836U 22001AK  24212.39987398 -.00000991  00000-0 -44188-4 0  9994,2 50836  53.2187 295.3463 0001468  85.5526 274.5634 15.08835650142865,6917.894,95.438,540.774,538.743,0.0
50836.0,STARLINK-3330,PAYLOAD,2024-07-30 14:21:58,15.0884243,0.0001603,53.2183,294.455,88.2768,271.8407,1.0202e-05,-1.26e-06,0.0,0 STARLINK-3330,1 50836U 22001AK  24212.59858839 -.00000126  00000-0  10202-4 0  9992,2 50836  53.2183 294.4550 0001603  88.2768 271.8407 15.08842430141532,6917.873,95.437,540.847,538.629,0.0
50836.0,STARLINK-3330,PAYLOAD,2024-07-30 15:57:21,15.08840273,0.000194,53.2171,294.1561,80.2277,279.8934,1.1766e-05,-1.01e-06,0.0,0 STARLINK-3330,1 50836U 22001AK  24212.66483115 -.00000101  00000-0  11766-4 0  9990,2 50836  53.2171 294.1561 0001940  80.2277 279.8934 15.08840273141546,6917.88,95.438,541.087,538.402,0.0
50836.0,STARLINK-3330,PAYLOAD,2024-07-31 12:37:22,15.08828456,0.0001485,53.2173,290.2907,87.483,272.6332,-0.00015849,-2.809e-05,0.0,0 STARLINK-3330,1 50836U 22001AK  24213.52595399 -.00002809  00000-0 -15849-3 0  9997,2 50836  53.2173 290.2907 0001485  87.4830 272.6332 15.08828456143035,6917.916,95.438,540.808,538.753,0.0
50836.0,STARLINK-3330,PAYLOAD,2024-08-01 12:28:08,15.08856788,0.0001348,53.2166,285.8304,89.3114,270.8033,0.00051268,7.884e-05,0.0,0 STARLINK-3330,1 50836U 22001AK  24214.51954491  .00007884  00000-0  51268-3 0  9990,2 50836  53.2166 285.8304 0001348  89.3114 270.8033 15.08856788143185,6917.829,95.436,540.627,538.762,0.0
50836.0,STARLINK-3330,PAYLOAD,2024-08-02 10:43:33,15.08847789,0.0001456,53.2161,281.6692,92.7888,267.327,0.00038395,5.829e-05,0.0,0 STARLINK-3330,1 50836U 22001AK  24215.44691152  .00005829  00000-0  38395-3 0  9998,2 50836  53.2161 281.6692 0001456  92.7888 267.3270 15.08847789143321,6917.857,95.437,540.729,538.714,0.0
